start=new Date('2022-05-29T00:00:00.000Z').valueOf();
sats=[{"CLASSIFICATION_TYPE":"U","NORAD_CAT_ID":"46374","CENTER_NAME":"EARTH","BSTAR":"0.00026053000000","MEAN_ELEMENT_THEORY":"SGP4","EPOCH":"2022-05-28T21:41:59.918208","ELEMENT_SET_NO":"999","PERIAPSIS":"546.129","OBJECT_TYPE":"PAYLOAD","SITE":"AFETR","TLE_LINE2":"2 46374  53.0544  25.2205 0001526  92.7937 267.3227 15.06409097 97178","COUNTRY_CODE":"US","APOAPSIS":"548.242","EPHEMERIS_TYPE":"0","LAUNCH_DATE":"2020-09-03","PERIOD":"95.592","ECCENTRICITY":"0.00015260","MEAN_MOTION_DDOT":"0.0000000000000","OBJECT_NAME":"STARLINK-1711","RA_OF_ASC_NODE":"25.2205","TLE_LINE1":"1 46374U 20062BB  22148.90416572  .00003602  00000-0  26053-3 0  9995","MEAN_MOTION":"15.06409097","FILE":"3469840","ARG_OF_PERICENTER":"92.7937","GP_ID":"204802550","DECAY_DATE":null,"MEAN_MOTION_DOT":"0.00003602","REV_AT_EPOCH":"9717","RCS_SIZE":"LARGE","REF_FRAME":"TEME","MEAN_ANOMALY":"267.3227","SEMIMAJOR_AXIS":"6925.321","INCLINATION":"53.0544","TIME_SYSTEM":"UTC","OBJECT_ID":"2020-062BB"},{"MEAN_ANOMALY":"313.8626","TIME_SYSTEM":"UTC","INCLINATION":"53.0558","OBJECT_ID":"2020-062BC","SEMIMAJOR_AXIS":"6925.313","GP_ID":"204801804","FILE":"3469840","ARG_OF_PERICENTER":"46.2507","REF_FRAME":"TEME","RCS_SIZE":"LARGE","DECAY_DATE":null,"MEAN_MOTION_DOT":"0.00001700","REV_AT_EPOCH":"9682","PERIOD":"95.591","LAUNCH_DATE":"2020-09-03","MEAN_MOTION":"15.06411765","ECCENTRICITY":"0.00017400","MEAN_MOTION_DDOT":"0.0000000000000","OBJECT_NAME":"STARLINK-1724","TLE_LINE1":"1 46375U 20062BC  22148.91844518  .00001700  00000-0  13296-3 0  9994","RA_OF_ASC_NODE":"50.1302","MEAN_ELEMENT_THEORY":"SGP4","BSTAR":"0.00013296000000","EPOCH":"2022-05-28T22:02:33.663552","ELEMENT_SET_NO":"999","CLASSIFICATION_TYPE":"U","NORAD_CAT_ID":"46375","CENTER_NAME":"EARTH","COUNTRY_CODE":"US","TLE_LINE2":"2 46375  53.0558  50.1302 0001740  46.2507 313.8626 15.06411765 96820","APOAPSIS":"548.383","EPHEMERIS_TYPE":"0","OBJECT_TYPE":"PAYLOAD","PERIAPSIS":"545.972","SITE":"AFETR"},{"SEMIMAJOR_AXIS":"6925.317","OBJECT_ID":"2020-062BD","INCLINATION":"53.0579","TIME_SYSTEM":"UTC","MEAN_ANOMALY":"294.7105","DECAY_DATE":null,"REV_AT_EPOCH":"9681","MEAN_MOTION_DOT":"0.00002294","REF_FRAME":"TEME","RCS_SIZE":"LARGE","FILE":"3469840","ARG_OF_PERICENTER":"65.4075","GP_ID":"204801554","RA_OF_ASC_NODE":"50.3819","TLE_LINE1":"1 46376U 20062BD  22148.86684051  .00002294  00000-0  17284-3 0  9993","ECCENTRICITY":"0.00018370","MEAN_MOTION_DDOT":"0.0000000000000","OBJECT_NAME":"STARLINK-1742","MEAN_MOTION":"15.06410245","LAUNCH_DATE":"2020-09-03","PERIOD":"95.591","PERIAPSIS":"545.910","OBJECT_TYPE":"PAYLOAD","SITE":"AFETR","COUNTRY_CODE":"US","TLE_LINE2":"2 46376  53.0579  50.3819 0001837  65.4075 294.7105 15.06410245 96819","APOAPSIS":"548.454","EPHEMERIS_TYPE":"0","CENTER_NAME":"EARTH","CLASSIFICATION_TYPE":"U","NORAD_CAT_ID":"46376","BSTAR":"0.00017284000000","MEAN_ELEMENT_THEORY":"SGP4","EPOCH":"2022-05-28T20:48:15.020064","ELEMENT_SET_NO":"999"},{"MEAN_MOTION":"15.06404069","OBJECT_NAME":"STARLINK-1758","MEAN_MOTION_DDOT":"0.0000000000000","ECCENTRICITY":"0.00018700","TLE_LINE1":"1 46380U 20062BH  22148.83320520  .00002638  00000-0  19589-3 0  9995","RA_OF_ASC_NODE":"75.5305","PERIOD":"95.592","LAUNCH_DATE":"2020-09-03","EPHEMERIS_TYPE":"0","APOAPSIS":"548.496","COUNTRY_CODE":"US","TLE_LINE2":"2 46380  53.0575  75.5305 0001870  53.0501 307.0660 15.06404069 96465","SITE":"AFETR","PERIAPSIS":"545.906","OBJECT_TYPE":"PAYLOAD","ELEMENT_SET_NO":"999","EPOCH":"2022-05-28T19:59:48.929280","MEAN_ELEMENT_THEORY":"SGP4","BSTAR":"0.00019589000000","NORAD_CAT_ID":"46380","CLASSIFICATION_TYPE":"U","CENTER_NAME":"EARTH","INCLINATION":"53.0575","TIME_SYSTEM":"UTC","OBJECT_ID":"2020-062BH","SEMIMAJOR_AXIS":"6925.336","MEAN_ANOMALY":"307.0660","REF_FRAME":"TEME","RCS_SIZE":"LARGE","REV_AT_EPOCH":"9646","MEAN_MOTION_DOT":"0.00002638","DECAY_DATE":null,"GP_ID":"204802806","ARG_OF_PERICENTER":"53.0501","FILE":"3469840"},{"LAUNCH_DATE":"2020-09-03","PERIOD":"95.592","ECCENTRICITY":"0.00017070","MEAN_MOTION_DDOT":"0.0000000000000","OBJECT_NAME":"STARLINK-1769","RA_OF_ASC_NODE":"50.3191","TLE_LINE1":"1 46382U 20062BK  22148.88159179  .00000831  00000-0  74715-4 0  9998","MEAN_MOTION":"15.06398485","NORAD_CAT_ID":"46382","CLASSIFICATION_TYPE":"U","CENTER_NAME":"EARTH","EPOCH":"2022-05-28T21:09:29.530656","ELEMENT_SET_NO":"999","BSTAR":"0.00007471500000","MEAN_ELEMENT_THEORY":"SGP4","SITE":"AFETR","PERIAPSIS":"546.036","OBJECT_TYPE":"PAYLOAD","EPHEMERIS_TYPE":"0","APOAPSIS":"548.400","TLE_LINE2":"2 46382  53.0560  50.3191 0001707  57.4954 302.6200 15.06398485 96829","COUNTRY_CODE":"US","MEAN_ANOMALY":"302.6200","SEMIMAJOR_AXIS":"6925.353","INCLINATION":"53.0560","TIME_SYSTEM":"UTC","OBJECT_ID":"2020-062BK","ARG_OF_PERICENTER":"57.4954","FILE":"3469840","GP_ID":"204803051","MEAN_MOTION_DOT":"0.00000831","REV_AT_EPOCH":"9682","DECAY_DATE":null,"RCS_SIZE":"LARGE","REF_FRAME":"TEME"},{"REV_AT_EPOCH":"9618","MEAN_MOTION_DOT":"0.00007252","DECAY_DATE":null,"REF_FRAME":"TEME","RCS_SIZE":"LARGE","ARG_OF_PERICENTER":"62.2338","FILE":"3469840","GP_ID":"204801304","SEMIMAJOR_AXIS":"6925.307","INCLINATION":"53.0547","TIME_SYSTEM":"UTC","OBJECT_ID":"2020-062BL","MEAN_ANOMALY":"297.8836","SITE":"AFETR","PERIAPSIS":"545.903","OBJECT_TYPE":"PAYLOAD","APOAPSIS":"548.440","EPHEMERIS_TYPE":"0","TLE_LINE2":"2 46383  53.0547  95.3740 0001832  62.2338 297.8836 15.06413654 96188","COUNTRY_CODE":"US","NORAD_CAT_ID":"46383","CLASSIFICATION_TYPE":"U","CENTER_NAME":"EARTH","EPOCH":"2022-05-28T20:50:14.659872","ELEMENT_SET_NO":"999","MEAN_ELEMENT_THEORY":"SGP4","BSTAR":"0.00050504000000","MEAN_MOTION_DDOT":"0.0000000000000","OBJECT_NAME":"STARLINK-1770","ECCENTRICITY":"0.00018320","TLE_LINE1":"1 46383U 20062BL  22148.86822523  .00007252  00000-0  50504-3 0  9990","RA_OF_ASC_NODE":"95.3740","MEAN_MOTION":"15.06413654","LAUNCH_DATE":"2020-09-03","PERIOD":"95.591"},{"MEAN_ANOMALY":"301.5567","SEMIMAJOR_AXIS":"6925.344","INCLINATION":"53.0570","TIME_SYSTEM":"UTC","OBJECT_ID":"2020-062BM","FILE":"3469283","ARG_OF_PERICENTER":"58.5575","GP_ID":"204764802","DECAY_DATE":null,"MEAN_MOTION_DOT":"0.00000657","REV_AT_EPOCH":"9609","RCS_SIZE":"LARGE","REF_FRAME":"TEME","LAUNCH_DATE":"2020-09-03","PERIOD":"95.592","MEAN_MOTION_DDOT":"0.0000000000000","ECCENTRICITY":"0.00015630","OBJECT_NAME":"STARLINK-1771","RA_OF_ASC_NODE":"98.0460","TLE_LINE1":"1 46384U 20062BM  22148.27478942  .00000657  00000-0  62990-4 0  9993","MEAN_MOTION":"15.06401391","CLASSIFICATION_TYPE":"U","NORAD_CAT_ID":"46384","CENTER_NAME":"EARTH","BSTAR":"0.00006299000000","MEAN_ELEMENT_THEORY":"SGP4","ELEMENT_SET_NO":"999","EPOCH":"2022-05-28T06:35:41.805888","OBJECT_TYPE":"PAYLOAD","PERIAPSIS":"546.127","SITE":"AFETR","TLE_LINE2":"2 46384  53.0570  98.0460 0001563  58.5575 301.5567 15.06401391 96095","COUNTRY_CODE":"US","APOAPSIS":"548.292","EPHEMERIS_TYPE":"0"},{"COUNTRY_CODE":"US","TLE_LINE2":"2 46532  53.0549 255.6456 0001420  75.8832 284.2314 15.06389674 91374","APOAPSIS":"548.229","EPHEMERIS_TYPE":"0","OBJECT_TYPE":"PAYLOAD","PERIAPSIS":"546.262","SITE":"AFETR","BSTAR":"0.00007714500000","MEAN_ELEMENT_THEORY":"SGP4","ELEMENT_SET_NO":"999","EPOCH":"2022-05-28T19:20:02.201856","CLASSIFICATION_TYPE":"U","NORAD_CAT_ID":"46532","CENTER_NAME":"EARTH","MEAN_MOTION":"15.06389674","MEAN_MOTION_DDOT":"0.0000000000000","OBJECT_NAME":"STARLINK-1644","ECCENTRICITY":"0.00014200","RA_OF_ASC_NODE":"255.6456","TLE_LINE1":"1 46532U 20070A   22148.80558104  .00000867  00000-0  77145-4 0  9996","PERIOD":"95.593","LAUNCH_DATE":"2020-10-06","REF_FRAME":"TEME","RCS_SIZE":"LARGE","DECAY_DATE":null,"MEAN_MOTION_DOT":"0.00000867","REV_AT_EPOCH":"9137","GP_ID":"204804072","FILE":"3469840","ARG_OF_PERICENTER":"75.8832","TIME_SYSTEM":"UTC","INCLINATION":"53.0549","OBJECT_ID":"2020-070A","SEMIMAJOR_AXIS":"6925.380","MEAN_ANOMALY":"284.2314"},{"SEMIMAJOR_AXIS":"6925.344","TIME_SYSTEM":"UTC","INCLINATION":"53.0556","OBJECT_ID":"2020-070B","MEAN_ANOMALY":"300.7196","MEAN_MOTION_DOT":"0.00004391","REV_AT_EPOCH":"9135","DECAY_DATE":null,"REF_FRAME":"TEME","RCS_SIZE":"LARGE","ARG_OF_PERICENTER":"59.3949","FILE":"3469840","GP_ID":"204803565","OBJECT_NAME":"STARLINK-1648","MEAN_MOTION_DDOT":"0.0000000000000","ECCENTRICITY":"0.00015840","TLE_LINE1":"1 46533U 20070B   22148.68393387  .00004391  00000-0  31351-3 0  9997","RA_OF_ASC_NODE":"256.1826","MEAN_MOTION":"15.06401560","LAUNCH_DATE":"2020-10-06","PERIOD":"95.592","SITE":"AFETR","PERIAPSIS":"546.112","OBJECT_TYPE":"PAYLOAD","EPHEMERIS_TYPE":"0","APOAPSIS":"548.306","TLE_LINE2":"2 46533  53.0556 256.1826 0001584  59.3949 300.7196 15.06401560 91356","COUNTRY_CODE":"US","NORAD_CAT_ID":"46533","CLASSIFICATION_TYPE":"U","CENTER_NAME":"EARTH","EPOCH":"2022-05-28T16:24:51.886368","ELEMENT_SET_NO":"999","MEAN_ELEMENT_THEORY":"SGP4","BSTAR":"0.00031351000000"},{"CENTER_NAME":"EARTH","NORAD_CAT_ID":"46534","CLASSIFICATION_TYPE":"U","EPOCH":"2022-05-28T19:09:24.000480","ELEMENT_SET_NO":"999","MEAN_ELEMENT_THEORY":"SGP4","BSTAR":"0.00096034000000","SITE":"AFETR","PERIAPSIS":"546.033","OBJECT_TYPE":"PAYLOAD","APOAPSIS":"548.222","EPHEMERIS_TYPE":"0","COUNTRY_CODE":"US","TLE_LINE2":"2 46534  53.0537 255.6883 0001580  48.0024 312.1099 15.06428076 91370","LAUNCH_DATE":"2020-10-06","PERIOD":"95.590","TLE_LINE1":"1 46534U 20070C   22148.79819445  .00014062  00000-0  96034-3 0  9993","RA_OF_ASC_NODE":"255.6883","MEAN_MOTION_DDOT":"0.0000000000000","ECCENTRICITY":"0.00015800","OBJECT_NAME":"STARLINK-1659","MEAN_MOTION":"15.06428076","ARG_OF_PERICENTER":"48.0024","FILE":"3469840","GP_ID":"204803571","MEAN_MOTION_DOT":"0.00014062","REV_AT_EPOCH":"9137","DECAY_DATE":null,"REF_FRAME":"TEME","RCS_SIZE":"LARGE","MEAN_ANOMALY":"312.1099","SEMIMAJOR_AXIS":"6925.263","OBJECT_ID":"2020-070C","INCLINATION":"53.0537","TIME_SYSTEM":"UTC"}];
